id,name,latitude,longitude,country,city,active
c18a1a2a-660c-4b38-9d4d-4f2bd361b76b,Robinson Inc,42.93369,-72.27814,US,New York,True
fa46213f-ecae-4e65-a7eb-473b41212e03,"Estes, Townsend and Johnson",44.73941,-93.12577,US,Los Angeles,True
672a68e4-1f2c-4274-8c61-905d201e15c1,"Stewart, Dixon and Jackson",42.7392,-84.62081,US,San Francisco,True
a6799188-fd94-4dc2-97a9-bf747734ea2e,"Estes, Townsend and Johnson",45.49428,-122.86705,US,Boston,False
57629e22-516d-4ab3-8c7e-88c2fb0cc656,Robinson Inc,34.25628,-78.04471,US,San Francisco,True
7531e243-b38b-4138-b593-f576131d286a,Robinson Inc,39.71734,-74.96933,US,Miami,True
960975f0-cf53-46fb-b5d3-7e3e49b0ee36,"Brown, Hebert and Green",33.50921,-111.89903,US,Las Vegas,True
3380b702-8636-464c-a902-e28929509de3,Robinson Inc,39.71734,-74.96933,US,Boston,True
393c0aff-1974-4a69-87e0-dd827f106fb7,"Stewart, Dixon and Jackson",33.95015,-118.03917,US,Washington,True
bc61bcba-3f24-4294-871b-418c3dcb7cf6,"Brown, Hebert and Green",35.61452,-88.81395,US,Boston,True
80a6bbb0-fbdb-43b8-93ef-959a38706745,"Estes, Townsend and Johnson",40.2737,-76.88442,US,Washington,True
34080292-1a25-43b8-9215-bb214f47002d,Shepherd-Scott,46.32374,-120.00865,US,New York,True
d1613f93-a6dc-4c88-a8df-afb9f14fa142,Robinson Inc,40.65538,-74.38987,US,Orlando,True
045f90d1-b4a6-4b0c-b2a5-9f976196a85a,Griffin-White,38.58894,-89.99038,US,San Francisco,True
94833649-d43b-48c0-9ee4-113c79842e02,Arnold Ltd,43.16547,-77.70066,US,New York,True
ba29f84e-faa3-4489-ba25-07974ee6443a,"Brown, Hebert and Green",33.08014,-83.2321,US,Seattle,True
8f69d182-2251-4cce-864d-e2b01dd3d16b,Griffin-White,30.16688,-96.39774,US,Miami,True
8e0c42c7-b322-4139-9061-0eff0a897705,"Stewart, Dixon and Jackson",40.63316,-74.13653,US,Miami,True
5a266ab3-6c83-4a39-9b4f-dad1fd6b4e8f,Arnold Ltd,41.0051,-73.78458,US,Miami,True
28fa4273-fcb8-49f2-8dd0-6768f905b8e5,"Carson, Lopez and Zhang",42.4251,-71.06616,US,Miami,True
f6905421-063f-4980-b1a1-4fcc515f738f,"Stewart, Dixon and Jackson",36.91023,-121.75689,US,Chicago,True
a844d57f-7882-405a-998a-7b9cd7987465,Arnold Ltd,46.32374,-120.00865,US,Los Angeles,True
85bbf237-3def-456e-a8ae-8a2b3c137d4b,Griffin-White,39.71734,-74.96933,US,Boston,True
316c9152-55fd-4387-b258-4aea632d9a95,"Brown, Hebert and Green",40.67705,-73.89125,US,Miami,True
df3da06e-de82-41ef-800b-b0fbb377c63f,Shepherd-Scott,41.47892,-87.45476,US,Orlando,True
ad87a543-71c9-439d-937f-7b6dd9ac4ae1,"Carson, Lopez and Zhang",32.9156,-117.14392,US,Los Angeles,True
c9205ee4-03b5-4deb-a3a9-61991123f9e4,Arnold Ltd,42.16808,-88.42814,US,Chicago,True
1d0a46cf-5f02-4282-bbd4-1e9381f39bd4,"Estes, Townsend and Johnson",27.71809,-82.35176,US,New York,True
ce5f5a61-0c5f-41eb-8240-14bdf93bd54b,"Thomas, Parker and Bailey",36.91023,-121.75689,US,Orlando,True
2fb2dec5-3d71-47e0-a438-2bf3d2a752dd,Arnold Ltd,33.54428,-84.23381,US,Orlando,True
85bb6c1c-4c27-4721-9c5a-1b6fc745bd47,Shepherd-Scott,41.80753,-87.65644,US,Boston,True
bb623bb9-8302-4891-8532-9d7361b25d5a,"Stewart, Dixon and Jackson",39.08367,-84.50855,US,New York,True
5a249681-4cce-4733-a73f-e3cfe342265d,Robinson Inc,40.64621,-73.97069,US,Seattle,False
a0dcdb6d-dd4a-4136-af70-83338d5cf4a2,Shepherd-Scott,38.54491,-121.74052,US,Chicago,True
e1ec7891-c0f0-49d6-b70f-36976fafe9c6,Griffin-White,30.17746,-81.38758,US,Los Angeles,True
5cdc32a9-5a00-4a12-8220-737780fbe131,"Brown, Hebert and Green",42.30865,-83.48216,US,Los Angeles,False
eb708b28-874d-4c09-86d5-ffca8651bcff,"Thomas, Parker and Bailey",37.71715,-122.40433,US,Boston,True
6c69ceeb-5b84-4c0f-8292-eec47191f1ed,"Estes, Townsend and Johnson",31.76212,-95.63079,US,Miami,True
e28c7237-11b8-470f-9cd9-e8374e6d6082,"Baker, Boyd and Dominguez",30.17746,-81.38758,US,Orlando,True
8c155c20-8700-42cc-87d4-c662f6d75cf9,Shepherd-Scott,40.24537,-75.64963,US,Washington,True
a6121108-b53a-4e18-9990-1603e6d558d8,Arnold Ltd,41.14676,-73.49484,US,San Francisco,True
052e6a2d-9901-4639-8086-288877a958b2,"Carson, Lopez and Zhang",34.06635,-84.67837,US,San Francisco,True
d9590dfc-ad84-4cf0-a404-fbb367b15e58,"Baker, Boyd and Dominguez",42.7392,-84.62081,US,Los Angeles,True
38c27247-de9c-46af-b9aa-1482499c085b,"Thomas, Parker and Bailey",39.33427,-76.43941,US,Washington,True
3e06d405-3b3d-4719-951e-faface99341c,Robinson Inc,42.4251,-71.06616,US,Las Vegas,True
e37042d0-0d59-4398-a39b-0fe7274e0929,"Stewart, Dixon and Jackson",41.84364,-87.71255,US,Boston,False
f79e5422-17bc-482b-b0df-c85869b17986,Shepherd-Scott,42.16808,-88.42814,US,Los Angeles,True
bc423bb4-ea89-47b7-97f6-1b2f78100c89,"Brown, Hebert and Green",27.71809,-82.35176,US,Washington,True
89307855-a5b1-484b-b998-b217b984750f,"Baker, Boyd and Dominguez",30.16688,-96.39774,US,Seattle,True
16b12427-11ee-4c22-82af-cd2227d01aa0,"Brown, Hebert and Green",41.8542,-87.66561,US,New York,True
42518b2b-7402-48b9-a1ac-c82d9e27b4ee,"Baker, Boyd and Dominguez",32.35126,-95.30106,US,Washington,True
791efc70-2f1d-4204-998f-528d6bd92757,"Thomas, Parker and Bailey",39.96097,-75.60804,US,Chicago,True
47fb3e6d-6c8f-4922-a1de-4674c8e2345f,Robinson Inc,43.1009,-75.23266,US,Chicago,True
32578992-b6a8-4d43-939a-f481a842c066,"Thomas, Parker and Bailey",32.5007,-94.74049,US,Seattle,True
65fa3e16-0a01-4762-bf56-c1356b1d258f,"Estes, Townsend and Johnson",40.93121,-73.89875,US,San Francisco,True
18f357da-df89-4c36-87c2-6cd7c6bb854a,"Baker, Boyd and Dominguez",39.00622,-77.4286,US,San Francisco,True
883d27d3-f4b4-49d4-afd1-439b5cd97f67,Shepherd-Scott,37.60876,-77.37331,US,Seattle,True
e3227cf1-6b9d-421e-8740-8d3b5e57c254,"Stewart, Dixon and Jackson",46.32374,-120.00865,US,Las Vegas,True
bc772305-e9d3-40b6-b2cd-047c17fffcd2,Arnold Ltd,31.76212,-95.63079,US,Washington,True
1d7f6fb6-d1f7-45ee-a486-356f2d4fc382,"Stewart, Dixon and Jackson",39.45621,-77.96389,US,Seattle,True
1e404def-b04d-4028-b97b-ff39b70dc050,Griffin-White,44.27804,-88.27205,US,Orlando,True
21c43678-59ac-47cf-97ed-40f89a916412,Shepherd-Scott,47.80527,-122.24064,US,San Francisco,True
8ab40142-1fa6-4b90-96bf-8cf6e2068b0f,Griffin-White,42.35843,-71.05977,US,Seattle,True
a7804739-36e7-4616-aaa0-cd701cd3f6c4,Arnold Ltd,43.16547,-77.70066,US,Seattle,True
cdf4aad4-2216-4d14-9fbe-17e7078699eb,"Thomas, Parker and Bailey",41.57721,-93.71133,US,Los Angeles,False
26273469-2322-4ae1-b181-46cfa0925775,"Estes, Townsend and Johnson",37.73604,-120.93549,US,Las Vegas,True
65690023-75a2-4711-896b-f51b565fcfb5,"Carson, Lopez and Zhang",30.5427,-97.54667,US,New York,True
c3a84edf-2562-4606-8ab9-59fbc58fd66e,"Thomas, Parker and Bailey",47.38093,-122.23484,US,San Francisco,True
5d0be619-15cb-4545-a0e5-850253250161,Robinson Inc,42.52787,-70.92866,US,Washington,True
28ec5805-2292-4035-833c-006289b33f3b,"Carson, Lopez and Zhang",33.45122,-86.99666,US,Washington,True
90e278a6-cdc4-44cf-a5fd-6ef591dd2339,Arnold Ltd,26.68451,-80.66756,US,Boston,True
f195116f-98bd-4c6a-aaf8-93234a73cdf8,"Baker, Boyd and Dominguez",39.71734,-74.96933,US,Boston,True
f1db32e1-e510-450d-bfb0-96bbc8d8159e,"Carson, Lopez and Zhang",41.14676,-73.49484,US,Boston,True
1e450e54-a403-40d8-816d-e513f7e4ff6b,"Thomas, Parker and Bailey",38.70734,-77.02303,US,Miami,True
2840833c-59d1-41c9-b43f-32db88957071,"Carson, Lopez and Zhang",40.24537,-75.64963,US,Orlando,True
c1bc2c42-61e6-4a8b-a2d0-76ae2b512ba2,Arnold Ltd,42.30865,-83.48216,US,Las Vegas,True
87487534-86f5-4c4d-9570-d18c703ae10a,"Brown, Hebert and Green",41.15376,-87.88754,US,Chicago,True
9aaa76c0-5362-405e-b445-416c104bf3f7,"Estes, Townsend and Johnson",28.54944,-81.77285,US,Chicago,True
bf5c7c1e-ce93-4906-bf09-f0acb8f79f91,"Estes, Townsend and Johnson",42.4251,-71.06616,US,Seattle,True
52dc81ce-628b-4d21-992a-93d7d5cf96aa,Griffin-White,38.70734,-77.02303,US,Las Vegas,True
f8ca09d1-818e-43d0-b9b9-57e89a13611c,"Baker, Boyd and Dominguez",43.16547,-77.70066,US,Las Vegas,True
014cbe24-a45c-4683-9e46-747d365ecee2,"Brown, Hebert and Green",41.54566,-71.29144,US,Orlando,True
0343452e-3696-475a-ad73-75453750b6c5,Griffin-White,28.54944,-81.77285,US,Chicago,True
cb7d4557-f685-4d20-97d2-323ed8bfffa7,"Carson, Lopez and Zhang",40.63316,-74.13653,US,Chicago,True
37e9e8a3-d1f2-4b25-a9d6-99761ddd7abe,"Estes, Townsend and Johnson",34.77453,-96.67834,US,Orlando,True
0f23fc95-908c-48a6-afe4-96d58f5c732c,Shepherd-Scott,40.5576,-74.28459,US,Miami,False
efe2b816-a5aa-433e-b419-7932da2f81d4,"Stewart, Dixon and Jackson",45.53929,-122.38731,US,Orlando,True
24ff8475-c3df-4196-97d1-b004e9dcd728,Griffin-White,40.56754,-89.64066,US,New York,True
0c0c6cce-3b69-4914-8e50-9a9d397da96b,Robinson Inc,30.16688,-96.39774,US,Los Angeles,True
ff07070b-a8be-4af1-8769-50be4d21ffdf,"Carson, Lopez and Zhang",41.50343,-74.01042,US,Seattle,True
77581403-92cd-45ce-a643-0fbeff5e45ae,Shepherd-Scott,33.50921,-111.89903,US,Las Vegas,True
ee79d02f-7e91-4c1e-911c-3983f604c11a,"Carson, Lopez and Zhang",45.0408,-93.263,US,Las Vegas,True
6526750e-3a97-4069-9357-70a278eeb3fd,"Brown, Hebert and Green",40.93121,-73.89875,US,San Francisco,True
8f1be778-8ff4-4b25-b245-a3ceb315fd9f,"Baker, Boyd and Dominguez",40.68066,-73.47429,US,New York,True
45fdb059-ec3d-45dd-bff5-6a11f793a0e6,"Thomas, Parker and Bailey",41.9001,-71.08977,US,New York,True
a28c360e-a321-4fc5-a00f-4ff698f175ee,Griffin-White,33.45122,-86.99666,US,Washington,True
7b926a73-97a1-4210-ba70-2b5922c9cd91,"Baker, Boyd and Dominguez",38.54491,-121.74052,US,Chicago,True
560f2615-1835-4501-9d1a-a75bb3efec73,"Stewart, Dixon and Jackson",35.25064,-91.73625,US,Los Angeles,True
75533dd5-11bb-458f-b27b-17108270d2a6,"Thomas, Parker and Bailey",42.55308,-87.93341,US,Las Vegas,True
d4ffab11-dd6d-46c3-aa7e-c03f20d4c7a6,"Baker, Boyd and Dominguez",41.55838,-81.56929,US,Miami,True
d82edab5-4b8e-4fae-946d-ae6ef09002e3,Rose GmbH & Co. KG,51.21667,6.26667,DE,Dortmund,True
6b8676ee-a2ff-42c1-b431-d599ca59150f,Jäkel AG,47.98372,10.18527,DE,Essen,True
ee49b0d8-28a4-4853-9512-84511a160678,Kitzmann KG,52.53048,13.29371,DE,Cologne,True
9a14d200-6e3e-40f1-af58-53211d795f6d,Salz Salz GmbH,48.73218,11.18709,DE,Dortmund,True
d6905a59-8b5f-4d36-bebc-752008b19b07,Margraf GbR,54.52156,9.5586,DE,Cologne,True
90f4ae5e-12bd-41f4-828c-a9e74caac459,Salz Salz GmbH,53.94313,10.30215,DE,Munich,True
d2af7537-d4f8-4450-ba57-79e05c3d0573,Jäkel AG,54.52156,9.5586,DE,Frankfurt,True
37a0868e-111f-4b50-85f1-a36beb37e4e2,Stiffel Wirth AG & Co. KGaA,50.82709,6.9747,DE,Dortmund,True
8681f02a-1ef3-47e5-af05-3ced3bfb55bc,Kitzmann KG,49.03685,8.70745,DE,Dortmund,True
c7c84152-77a7-4119-9d67-0f47cb5fa66d,Stiffel Wirth AG & Co. KGaA,53.6052,10.03988,DE,Frankfurt,True
a781da88-5f95-4c67-9cdc-7cfa666bf181,Eigenwillig,50.64336,7.2278,DE,Munich,True
ba5a1ccd-9226-4cbc-9121-6ee1080198ab,Eigenwillig,48.35693,10.98461,DE,Cologne,True
286fcafa-e8fc-4941-b2c4-075175e83ffe,Margraf GbR,48.35149,8.96317,DE,Essen,True
94dc5eb5-9542-448d-a824-a742076f81a5,Rose GmbH & Co. KG,51.19139,6.51352,DE,Hamburg,True
0fbeadd5-69ed-4e48-a8a9-5003bb6bbf4b,Salz Salz GmbH,50.23019,8.77155,DE,Essen,True
56d4f7c9-254c-4963-b94f-271522b86c59,Karge Haase GmbH,48.35693,10.98461,DE,Dusseldorf,True
8ad426ab-22d1-4aec-94e9-9eb75728a3f4,Salz Salz GmbH,50.23805,8.86704,DE,Dusseldorf,True
37e40fed-0d94-47cc-9919-0373c61c4f9b,Stiffel Wirth AG & Co. KGaA,51.30001,13.10984,DE,Munich,True
ae41efe6-f0cb-4316-a83f-28065f0eff48,Salz Salz GmbH,53.63333,9.85,DE,Frankfurt,True
126b852e-c106-4481-825c-3fee84075e0e,Fritsch AG & Co. KG,52.59319,13.32127,DE,Hamburg,True
de295df1-539e-438d-a6cd-3087de516c2c,Jäkel AG,48.78232,9.17702,DE,Berlin,True
2dfca52a-6a11-48b4-aa20-12d18d3fb9c0,Rose GmbH & Co. KG,52.4581,13.28702,DE,Dusseldorf,True
03cefa8d-d42d-4686-b3b7-6d601c6d7469,Weinhage Weinhage KG,49.5099,6.74549,DE,Leipzig,True
ae622124-0be6-4b9a-b2d6-9d4b161fc160,Kitzmann KG,50.82709,6.9747,DE,Hamburg,True
1bd6b105-135c-4bcc-9cf3-e70ce2f25150,Margraf GbR,49.97704,9.15214,DE,Munich,True
3b1f1cc3-c24d-4fea-8e0d-35a2c16aa673,Margraf GbR,53.59337,9.47629,DE,Dusseldorf,True
98af5abb-1870-49f0-a46e-b5c9e203a248,Stiffel Wirth AG & Co. KGaA,50.82709,6.9747,DE,Berlin,True
b660dfa4-cfad-468b-8be4-cf0100f198a6,Margraf GbR,50.80904,8.77069,DE,Leipzig,True
f1c625d8-6c13-4553-9eec-3e0667606e77,Weinhage Weinhage KG,50.23805,8.86704,DE,Berlin,True
322401db-68a0-4fdb-85d9-87525d159d93,Stiffel Wirth AG & Co. KGaA,50.80019,7.20769,DE,Leipzig,True
b16fcba1-6d25-4d2b-a156-019e519c3936,Karge Haase GmbH,51.08468,7.11393,DE,Essen,False
cf8c8bbc-cd0c-4e0d-b890-299b77772479,Karge Haase GmbH,53.94313,10.30215,DE,Munich,True
12f297a0-c6cc-462c-b37c-a7b3ed822b0b,Karge Haase GmbH,48.49144,9.20427,DE,Dortmund,True
b3497064-c8a0-4e21-bc05-f07282bb099c,Weinhage Weinhage KG,51.20219,7.36027,DE,Frankfurt,True
34f9b73c-5dbb-4612-82a6-8fcea199f9f2,Fritsch AG & Co. KG,50.80904,8.77069,DE,Essen,True
ab4385ba-8cf4-471a-ba72-dba2f57581a2,Fritsch AG & Co. KG,50.23019,8.77155,DE,Berlin,True
1afdc769-b8b4-4b54-b1fc-bca4bc9de2b0,Kitzmann KG,53.63333,9.85,DE,Dusseldorf,True
2c0c4b3e-db5d-4f6d-b777-312feb76c23c,Fritsch AG & Co. KG,51.47805,6.8625,DE,Frankfurt,True
9f3bb5e6-dcd4-4ca0-bc91-3b26b6779116,Stiffel Wirth AG & Co. KGaA,53.6052,10.03988,DE,Essen,True
1d8f058c-88b5-4656-96a3-2fd2aff5a13b,Jäkel AG,48.78232,9.17702,DE,Cologne,True
484f2cb4-df12-4da8-a5ec-41d5eee6741a,Eigenwillig,52.2,8.63333,DE,Dortmund,True
d60dbc1d-95f0-464d-abc9-ed87d969c202,Fritsch AG & Co. KG,51.30001,13.10984,DE,Leipzig,False
dc239bae-513d-431d-8a79-0be6cc3866b3,Karge Haase GmbH,53.59337,9.47629,DE,Hamburg,True
eef7482e-d1fe-438d-a3d5-1bf9c821c9c6,Weinhage Weinhage KG,52.61131,13.31783,DE,Hamburg,True
cb0d0fe6-d85f-4a0e-a418-a77b910a21b8,Salz Salz GmbH,48.78232,9.17702,DE,Berlin,True
a6a1278a-1668-4e6a-b739-d75ae1797a60,Stiffel Wirth AG & Co. KGaA,51.04962,12.1369,DE,Dusseldorf,True
25d44eda-9cd7-40a0-80bb-2f1f27bf2042,Eigenwillig,49.68369,8.61839,DE,Essen,True
6ad8c742-3666-4254-ada9-db301feda459,Jäkel AG,51.21667,6.26667,DE,Munich,True
bf62e472-dd0e-41f1-baac-1fe337d3ebd7,Kitzmann KG,49.97704,9.15214,DE,Essen,True
f964c281-f29f-40e5-9d72-b01d70f21fc5,Eigenwillig,52.4581,13.28702,DE,Frankfurt,True
1878839e-ee19-4d7e-b5d1-8c76b2420a81,Rose GmbH & Co. KG,50.80019,7.20769,DE,Essen,True
f64ea90e-6660-4b81-ac76-4a222ce12d93,Jäkel AG,49.13645,8.91229,DE,Dortmund,True
e6ebfefe-78b3-4ac2-a6db-54141164dbed,Weinhage Weinhage KG,53.63333,9.85,DE,Essen,True
7f9f7166-8692-4fc0-a561-f7ce3e9c4625,Stiffel Wirth AG & Co. KGaA,50.80019,7.20769,DE,Cologne,True
61e1fd13-b218-4cff-a666-b39238bc4776,Karge Haase GmbH,52.53048,13.29371,DE,Leipzig,True
13b7932e-6086-488d-8b25-717f5996bcb1,Weinhage Weinhage KG,50.80904,8.77069,DE,Stuttgart,True
165294b6-cc2f-4d48-b60f-f9866bce686f,Eigenwillig,49.97704,9.15214,DE,Dusseldorf,True
62a54053-7a61-4138-8508-b7281422295d,Fritsch AG & Co. KG,51.30001,13.10984,DE,Dortmund,True
40dc33fb-e3c2-45e8-8114-fd24c0384079,Kitzmann KG,51.88333,8.51667,DE,Leipzig,True
9477d16d-a212-4a45-812f-4aa22699687c,Rose GmbH & Co. KG,48.78232,9.17702,DE,Cologne,True
6283cbd4-23e4-4048-a135-790e8ce04b61,Eigenwillig,51.168,7.973,DE,Stuttgart,True
02936833-9663-4422-b87c-4b93ed1c5408,Jäkel AG,53.59337,9.47629,DE,Dusseldorf,True
944fe43d-03ac-4e31-8aed-bcb74d229660,Margraf GbR,48.35149,8.96317,DE,Frankfurt,True
b86c2184-3a3d-4a62-b47b-c7d098d3d02c,Margraf GbR,50.72043,11.34046,DE,Stuttgart,True
1db784ed-4695-41d2-838a-7cef8477d1b7,Jäkel AG,52.53048,13.29371,DE,Stuttgart,True
4ff612e2-f8e9-4ee1-b666-6e2e77588a5f,Salz Salz GmbH,52.47774,10.5511,DE,Hamburg,True
ef7d273a-c88a-4e47-a691-aa730128b0a4,Margraf GbR,50.80904,8.77069,DE,Dortmund,True
f88fdb09-4cb3-438c-9d1c-f75465cdf46c,Margraf GbR,53.63333,9.85,DE,Hamburg,True
b141ae42-fa88-49dc-bb3d-69a52b9fe309,Weinhage Weinhage KG,48.21644,9.02596,DE,Dortmund,True
806255de-4799-4864-8181-440501f39f83,Jäkel AG,48.52961,12.16179,DE,Leipzig,True
d17f1b86-8d9a-4c59-9f94-595f1ee875ba,Fritsch AG & Co. KG,52.4581,13.28702,DE,Stuttgart,True
e9bc9057-243c-481e-9f0e-5ea0a46b7775,Fritsch AG & Co. KG,51.47805,6.8625,DE,Cologne,True
bc156a28-28c3-4029-83a7-db3d3d098755,Kitzmann KG,51.168,7.973,DE,Frankfurt,True
708b5add-fac3-4b0c-ac69-46b31bb221d2,Karge Haase GmbH,53.94313,10.30215,DE,Stuttgart,True
8a0af512-7fb6-4a2d-bece-0a9f584cdda7,Karge Haase GmbH,48.35693,10.98461,DE,Frankfurt,True
dc048fe2-0a20-46d1-b30d-18c01355f49b,Eigenwillig,52.53048,13.29371,DE,Leipzig,True
57ed2e42-ba87-4fde-9bd2-2ff38e3a316c,Rose GmbH & Co. KG,50.64336,7.2278,DE,Frankfurt,True
7a60d9b9-eb78-4692-81be-29f1e8ef5870,Weinhage Weinhage KG,51.168,7.973,DE,Munich,True
2196afb8-6a12-4c74-8cfe-4c0cf5df652e,Salz Salz GmbH,51.08468,7.11393,DE,Leipzig,True
e7f9e5a1-14dd-44c4-bec7-1b409b199c3c,Margraf GbR,52.61131,13.31783,DE,Berlin,True
474e66fa-f6fc-4493-81f1-76b163577d17,Stiffel Wirth AG & Co. KGaA,48.35149,8.96317,DE,Hamburg,True
617819a1-b168-4172-95cb-ac5eb535e36d,Salz Salz GmbH,52.86147,9.5926,DE,Stuttgart,True
b0f7d668-51a4-493b-857b-ac6d6497d77d,Rose GmbH & Co. KG,51.20219,7.36027,DE,Stuttgart,True
03cf0cab-b193-4172-8321-ed05f05a4c3e,Stiffel Wirth AG & Co. KGaA,53.94313,10.30215,DE,Stuttgart,True
1fa6de7c-9937-4843-9f0f-aedd35dddbd9,Weinhage Weinhage KG,48.35149,8.96317,DE,Dusseldorf,True
4277acc9-e920-447c-840b-a342bdd502f6,Rose GmbH & Co. KG,52.53048,13.29371,DE,Munich,True
d198762c-b1b8-4e4c-8a33-356b21fd496e,Rose GmbH & Co. KG,50.64336,7.2278,DE,Leipzig,True
047536bf-504e-4119-a33a-fec4e938405a,Karge Haase GmbH,48.78232,9.17702,DE,Cologne,True
28aef9b3-26b6-41f6-8a7c-c8984b2a353c,Rose GmbH & Co. KG,50.9803,11.32903,DE,Berlin,False
915a087b-9a7f-4de7-8257-18712687ef7a,Salz Salz GmbH,48.35149,8.96317,DE,Cologne,True
c2056052-dbd7-42b6-b035-c938199afcf6,Kitzmann KG,48.52961,12.16179,DE,Berlin,True
30b0d3ef-36e2-40f5-a5e5-32cc68cbf16a,Karge Haase GmbH,50.23019,8.77155,DE,Berlin,True
d6d09bee-f8e6-44a9-9893-e527c4e8c3b2,Eigenwillig,48.06919,11.37703,DE,Berlin,True
62443dbc-6e4a-49b5-802d-9185b7980f44,Kitzmann KG,48.78232,9.17702,DE,Munich,True
d71abda2-1965-462e-8106-15422ca67552,Fritsch AG & Co. KG,52.4581,13.28702,DE,Munich,True
fe9e7c97-e53a-4db4-ae65-c08a18b1c96c,Eigenwillig,48.28259,9.72749,DE,Hamburg,True
e82e8304-d43d-4aa6-b0e5-9469e0a5d6e9,Weinhage Weinhage KG,49.03685,8.70745,DE,Cologne,True
f003d3cb-c49c-46fa-b629-56d32e9a8255,Kitzmann KG,52.59319,13.32127,DE,Stuttgart,True
976ea531-2e44-4213-a62e-f532a2184763,Fritsch AG & Co. KG,51.168,7.973,DE,Dusseldorf,True
6286d97b-fd12-4550-9c73-90caea1e0e8b,Jäkel AG,50.09019,8.4493,DE,Hamburg,True
c8510b13-1377-4b8c-a22f-0612dc5afbcd,Blot,48.77275,5.16108,FR,Bordeaux,True
48564c17-b4a6-4c0a-9daa-2a9487d28100,Klein Mahe S.A.R.L.,48,-4.1,FR,Nantes,True
8896038e-c142-4e99-bbb5-f2ffa3b7298e,Klein Mahe S.A.R.L.,45.69558,4.7934,FR,Montpellier,True
04e303e4-ff44-4b2c-9a94-5afa1b29df5b,Klein Mahe S.A.R.L.,43.71032,-1.05366,FR,Lyon,True
a2a9476a-7a4e-4a2b-a268-034d92539eb6,Dumas,50.75,2.25,FR,Nice,True
2c876de2-495a-49f9-b6f0-be2b4cf669b8,Muller,48.79325,2.29275,FR,Lille,True
ac8cdba2-fe0b-4345-bf1a-05183cdde1d5,Delmas,43.32393,5.4584,FR,Marseille,True
964139c8-c58d-4d71-af72-b44c2b60c564,Prévost David S.A.S.,48.98693,2.44892,FR,Montpellier,True
00bab721-7855-4981-bd30-b95ca6c4a206,Delmas,48.98693,2.44892,FR,Paris,False
d48f664c-ce31-478b-bacf-32692d60ca40,Normand Meyer SARL,43.61058,1.33467,FR,Paris,True
f7e7429b-c67d-41e3-857d-980334df6198,Perez S.A.,45.69558,4.7934,FR,Strasbourg,True
8863dded-5179-4046-bafb-762dded31fa5,Normand Meyer SARL,43.32393,5.4584,FR,Nice,True
05ea1c0f-d10b-4126-94c8-a3a24e19008e,Muller,48.8222,2.12213,FR,Lyon,True
4ae97e70-48d8-4801-8440-12265de5a5c9,Blot,43.67681,4.63031,FR,Lille,False
4e0993dd-6f18-4130-a5dd-567ff50d368e,Perez S.A.,45.69558,4.7934,FR,Lyon,True
ebd63c6f-9fd1-480c-8072-444426033e0f,Peron,43.83125,5.03586,FR,Montpellier,True
3b5a3f1d-6987-43a7-93f5-09a8bf73c446,Prévost David S.A.S.,50.75,2.25,FR,Marseille,True
9851a455-17ec-4c82-829c-ac8d2783b2e2,Prévost David S.A.S.,48.86667,2.08333,FR,Nice,False
f1cf3da3-35a8-4dca-9c2e-dccd3895e345,Peron,48.90982,2.45012,FR,Paris,True
226d674f-7f2e-4880-b31c-8e0ace264f20,Delmas,43.11667,1.6,FR,Lyon,True
a1b8932c-ff9c-44ec-8c8a-21471924cc83,Muller,46.67535,5.55575,FR,Nantes,True
1e8d75bb-be16-4af5-ae23-f7e249a60fba,Gimenez Chevallier et Fils,43.71032,-1.05366,FR,Nice,True
27d1fe95-bbcb-4a58-8e8e-0a04da73fecb,Klein Mahe S.A.R.L.,48,-4.1,FR,Strasbourg,True
c6f8eb3c-53a6-4a56-b8c4-907b72c27f8d,Klein Mahe S.A.R.L.,46.32313,-0.45877,FR,Lille,True
86913321-df79-4bd0-84bb-4c55c2878fa6,Dumas,46.32313,-0.45877,FR,Marseille,False
89c3bae1-9bfd-453b-8cf8-3901048a675e,Muller,48.90982,2.45012,FR,Bordeaux,True
126ac028-e26b-43da-872e-4e160717aee5,Prévost David S.A.S.,43.11667,1.6,FR,Paris,True
69373ff6-fa60-420d-9fef-8ca66ce75c0d,Delmas,43.61092,3.87723,FR,Bordeaux,True
91b7e9b3-10b6-4c9e-8096-df5065a17960,Perez S.A.,48.77275,5.16108,FR,Lille,True
c6edaaaf-9f1c-4748-9044-6ee497b6a9d4,Muller,48.8765,2.18967,FR,Marseille,True
873ef209-d680-4ec9-9fa9-018184c99671,Muller,48.90472,2.2469,FR,Paris,True
286c109e-edc7-4bb7-8a99-aa9f45f827df,Normand Meyer SARL,48.8222,2.12213,FR,Bordeaux,True
ca19579f-45c9-4a62-8de3-3090e5b96305,Dumas,48.86667,2.08333,FR,Paris,True
980df59e-0160-4b54-91e7-7ec5dc605828,Prévost David S.A.S.,48.98994,2.1699,FR,Bordeaux,True
812328f4-2761-4214-91cb-ddeff4d65fd5,Gimenez Chevallier et Fils,48.98693,2.44892,FR,Nantes,True
8b238ab7-34cc-4c12-bfaf-331a11ee7cc6,Peron,43.11667,1.6,FR,Nice,True
97dd5ccf-07eb-4bdd-a7d6-351fe570e8ee,Delmas,43.61092,3.87723,FR,Strasbourg,True
ad3c09ee-ed00-4bdb-a24a-563d3a7b08a5,Peron,43.83125,5.03586,FR,Toulouse,True
af42614c-5934-48cd-8553-418ad76bcaf3,Peron,48.90982,2.45012,FR,Lyon,True
0f8e9d6f-ed61-4ac9-bdce-ba216d6afd0c,Blot,43.61058,1.33467,FR,Lyon,True
5090237e-7917-44f1-8753-d2676c32ff80,Klein Mahe S.A.R.L.,43.71032,-1.05366,FR,Bordeaux,True
4ca8458f-6c90-485f-a7fd-5dba1fde817f,Peron,43.61058,1.33467,FR,Bordeaux,True
8aebb58d-9a57-42b6-8ee5-10ee6812075e,Dumas,48.90982,2.45012,FR,Lille,True
743c2cc8-b805-4a6e-b3f7-8e2f2fcf8aec,Blot,48.98333,2.61667,FR,Nice,True
dc7a362a-dfdf-43ba-bc93-70490ab7152a,Gimenez Chevallier et Fils,43.61092,3.87723,FR,Montpellier,True
e2310a62-00df-4f4a-90a3-6cd5f74ecb2f,Delmas,43.67681,4.63031,FR,Montpellier,False
d1596102-c7d9-4c71-bd1c-99c156207ab2,Gimenez Chevallier et Fils,48.90982,2.45012,FR,Strasbourg,True
4cf80a4c-0e2f-4ac0-a974-5e0a0088aaf5,Perez S.A.,48.8765,2.18967,FR,Marseille,True
651657e0-96e0-4d98-a00a-4b294983a62e,Dumas,46.67535,5.55575,FR,Bordeaux,True
d52c4ca1-6c07-4fcd-86bd-4e1a0c598733,Delmas,48.86667,2.08333,FR,Nantes,True
18baa53c-0344-49a6-8022-21c62df66105,Normand Meyer SARL,43.2907,5.4384,FR,Marseille,True
2db54e7c-efe8-40c1-8563-4ea0b6bcd616,Normand Meyer SARL,45.73333,4.91667,FR,Toulouse,True
efda1572-cfa2-4f53-a541-671fe1e34580,Muller,43.67681,4.63031,FR,Nice,True
5e493eb5-824b-409f-a416-862a234a1885,Normand Meyer SARL,48.90982,2.45012,FR,Strasbourg,False
40245ce5-bc95-45a7-a6d9-3edb53706e8b,Perez S.A.,48.98693,2.44892,FR,Paris,True
7faaf00c-2af2-4cc1-bef6-2af39d0c43e3,Blot,48.98994,2.1699,FR,Marseille,True
2ecdc5ad-815e-4a52-af76-462fd2edeede,Gimenez Chevallier et Fils,44.80477,-0.59543,FR,Lille,True
5274a957-a459-47d6-99e7-9197c3bf2235,Peron,43.71032,-1.05366,FR,Lille,True
52d24047-c510-4a63-a4b8-35b0ad09ee3f,Gimenez Chevallier et Fils,44.80477,-0.59543,FR,Bordeaux,True
7f0b6206-4a8d-480a-af05-187edf6ed272,Peron,48.79325,2.29275,FR,Nantes,True
327d748d-3503-406b-9669-eed7ba2e8b1a,Normand Meyer SARL,43.32393,5.4584,FR,Lille,True
aae5c402-0e3e-44f7-a5d3-dee8bb9ae5da,Perez S.A.,48.86667,2.08333,FR,Nantes,True
5ca53f1c-1be2-40bc-bcc0-f8e1c45e647a,Gimenez Chevallier et Fils,48.90472,2.2469,FR,Lyon,True
1b47344c-26a8-4051-9e5b-991a499fd472,Prévost David S.A.S.,48.98333,2.61667,FR,Lille,True
47bf7c85-88d6-4361-9360-94a636f958b8,Peron,41.91886,8.73812,FR,Strasbourg,True
a82cee97-f97e-4900-8928-f7a642442f0e,Blot,49.28669,1.00288,FR,Montpellier,True
9a0a5af1-767f-4f44-83b9-f9a86b9a629a,Dumas,48,-4.1,FR,Strasbourg,True
2e1e13d4-b916-4cca-9fe1-eede9748ccd3,Gimenez Chevallier et Fils,45.51667,4.86667,FR,Paris,True
6ddc0089-fb5b-4c5a-b5e5-c017f33cdce5,Dumas,43.67681,4.63031,FR,Nantes,True
dc43dc61-c979-4723-9ea8-522921a0a89d,Normand Meyer SARL,48.8222,2.12213,FR,Lyon,True
222c2cfd-3847-4c0f-a152-94bac61687e7,Normand Meyer SARL,43.32393,5.4584,FR,Montpellier,True
84f2402c-dbc1-4fd8-940d-76a443b98ac5,Blot,48.77644,2.29026,FR,Paris,True
fdfd3ba2-826e-44c7-b112-9bd90405f1df,Perez S.A.,43.83125,5.03586,FR,Bordeaux,True
b941349e-8d3a-43c6-bd65-0c8b69fb15b8,Muller,45.51667,4.86667,FR,Toulouse,True
815d1370-fd93-47d7-9c22-88e32a84d286,Perez S.A.,45.51667,4.86667,FR,Nice,True
a9bf4253-5e6f-4b91-be2c-a8029a895bd1,Perez S.A.,46.32313,-0.45877,FR,Toulouse,True
f4e7ee3d-9b37-40e4-b601-01feba7d55c8,Dumas,48.86667,2.08333,FR,Montpellier,True
98530bb7-5de6-4b18-8698-97b5338c3eea,Blot,48.90982,2.45012,FR,Strasbourg,True
98a515cd-9a95-4402-b811-d3f2314129bc,Klein Mahe S.A.R.L.,44.92801,4.8951,FR,Paris,True
0f8ff861-4ac0-48c6-ba55-c307d3381016,Perez S.A.,48.79325,2.29275,FR,Montpellier,True
b18af031-6887-475b-81d1-a8cf0c9eb43c,Delmas,48.79325,2.29275,FR,Nice,True
2b1191dc-1a9f-4c20-a7e6-eb42fe3214ee,Peron,48.79325,2.29275,FR,Marseille,True
f9aeaccf-cb32-4015-8941-822b848ebcbc,Prévost David S.A.S.,45.51667,4.86667,FR,Nantes,True
5cb9f744-b8f0-4bd9-bca5-7ed9cd4db33b,Prévost David S.A.S.,48.90982,2.45012,FR,Lyon,True
d574a5be-f07e-4d30-9186-e21f5fb6c52e,Dumas,43.83125,5.03586,FR,Lyon,True
1b6ee80a-5c74-4da3-96a2-1b2246ccf99d,Prévost David S.A.S.,45.51667,4.86667,FR,Toulouse,True
e956ad8d-e896-4e4c-b0f6-7f036d050591,Prévost David S.A.S.,46.32313,-0.45877,FR,Strasbourg,True
407ec302-e387-42c8-a5d2-d073728c44d7,Delmas,43.32393,5.4584,FR,Toulouse,True
35bd5a54-2e27-48cb-9a7b-0d1ee60cbd0c,Muller,43.83125,5.03586,FR,Montpellier,True
d03e03bc-bc45-4c9a-bd9b-823243879870,Klein Mahe S.A.R.L.,48.98693,2.44892,FR,Toulouse,True
89238317-db1b-48da-9620-fb3ad84f4adc,Klein Mahe S.A.R.L.,48.98333,2.61667,FR,Nice,True
d1603aa7-6660-4e11-b062-14077b900d2f,Dumas,48,-4.1,FR,Toulouse,True
c0598594-bb10-43d0-ae2d-411f758a9077,Blot,44.80477,-0.59543,FR,Nantes,True
aa8af21c-a949-4b7d-b98c-315084045a5b,Blot,48.98693,2.44892,FR,Toulouse,True
3655d316-a501-4af5-b37d-e4ced44ae93c,Muller,48,-4.1,FR,Strasbourg,True
aceba27d-f96c-4c70-b795-d8d11a5b32bc,Normand Meyer SARL,43.2907,5.4384,FR,Nantes,True
7925c1a0-a14a-404d-a6e4-e157e2c46d7d,Delmas,43.83125,5.03586,FR,Lille,True
58fff729-4ac1-44a5-91c3-9b1cd29271ed,Klein Mahe S.A.R.L.,43.67681,4.63031,FR,Marseille,True
ae49baaf-f96a-472c-b772-c18e98cfbaca,Gimenez Chevallier et Fils,48.98994,2.1699,FR,Toulouse,True
e22112a3-3afb-41c9-937c-9785fd9939fe,Gimenez Chevallier et Fils,48.98693,2.44892,FR,Marseille,True
07c16fa1-fba9-48ff-a91b-d12cefcce35f,Hnos Batlle S.L.U.,43.48961,-8.2194,ES,Barcelona,True
a3a5d6ca-36ff-4653-9172-6ca0a000bf27,Catalina Montalbán Nebot S.A.,41.91738,3.1631,ES,Murcia,True
f48eeb48-783d-43bf-91a6-10d799688d7f,Suministros Guzman y asociados S.Com.,38.47917,-1.325,ES,Murcia,True
91815566-e7a5-4a0e-b341-1ff1b4b46706,Suministros Guzman y asociados S.Com.,39.96348,-4.83076,ES,Palma,False
22c93409-9b1c-47a9-91d3-17af1c222bfb,Comercializadora Españolas S.L.U.,37.49073,-2.77259,ES,Seville,True
8bec9196-7235-4d0d-97fa-ae3676037d4b,Compañía Plana S.Com.,43.48961,-8.2194,ES,Palma,True
0a79263a-3f08-44e8-b688-b35b16aa2f57,Banco TQZM S.C.P,38.47917,-1.325,ES,Palma,True
369e218d-9f8f-4eb6-bf50-13efd0dc60a6,Compañía Plana S.Com.,27.76056,-15.58602,ES,Barcelona,True
18c73f88-cae6-4043-b4df-00b239734abc,Comercializadora Españolas S.L.U.,40.70995,0.57856,ES,Murcia,True
0612413f-e438-45c3-b7d7-e235d02945c7,Ruano y Carreras S.Com.,41.63976,2.35739,ES,Madrid,True
6d240174-cdd9-4024-aeec-0283d2481331,Ruano y Carreras S.Com.,41.41204,2.18247,ES,Las Palmas,True
3246747f-b23f-4b42-bac0-202dbeb109d3,Promociones Cal & Asociados S.A.,39.96348,-4.83076,ES,Las Palmas,True
1f6bfed5-bafc-4401-922f-d517e4c70a74,Catalina Montalbán Nebot S.A.,42.06166,-1.60452,ES,Madrid,False
cd71f134-d4f1-4bdf-b3d3-9468669a37e1,Suministros Guzman y asociados S.Com.,40.70995,0.57856,ES,Zaragoza,True
a5b6fd34-942b-4826-a53e-7d03694fbb4d,Comercializadora Españolas S.L.U.,39.96348,-4.83076,ES,Valencia,True
658729ed-a1c2-4ff2-9ea9-d5ad9f025323,Banco TQZM S.C.P,41.15612,1.10687,ES,Valencia,False
bfebcc0c-f4f7-4443-9951-6ce514483385,Talleres Boix y asociados S.L.,27.76056,-15.58602,ES,Valencia,True
fea3fe00-465c-4d47-81fe-29095e7ea714,Comercializadora Españolas S.L.U.,40.70995,0.57856,ES,Bilbao,True
7f1c60ef-3aa4-4c4c-989e-fab27d8636fb,Comercializadora Españolas S.L.U.,41.91738,3.1631,ES,Palma,True
d76c231b-65fc-4345-82c5-edc3c2a9d6d5,Ruano y Carreras S.Com.,38.38479,-0.76773,ES,Murcia,True
d2c2bf7b-1a9b-40b2-a830-53450715900f,Comercializadora Españolas S.L.U.,27.76056,-15.58602,ES,Malaga,True
6f1690e4-d699-4d83-9949-3ee2e1313960,Suministros Guzman y asociados S.Com.,38.47917,-1.325,ES,Barcelona,True
ca8c0cd9-15b9-46c0-9880-ce0dec256ace,Inmobiliaria Campos S.Com.,41.15612,1.10687,ES,Valencia,True
23446ca7-debd-41c9-ba21-d94ac6cc4975,Banco TQZM S.C.P,40.70995,0.57856,ES,Murcia,True
190a7457-de45-4f02-b32f-607b102f1e18,Inmobiliaria Campos S.Com.,37.49073,-2.77259,ES,Seville,True
185b4aaa-db0c-465e-b1fd-02b299b3a539,Banco TQZM S.C.P,37.13548,-3.67029,ES,Barcelona,True
a477dcc1-d552-4d89-bf7b-c8fc700c425d,Inmobiliaria Campos S.Com.,42.8139,-1.64295,ES,Las Palmas,True
dc4a4cf2-e343-40f3-bdf2-3ce3f61fdd18,Banco TQZM S.C.P,40.70995,0.57856,ES,Las Palmas,True
6019b6c7-526e-4b14-b599-184b5359d79b,Inmobiliaria Campos S.Com.,27.76056,-15.58602,ES,Zaragoza,True
0d4dd106-0a4d-48f1-86aa-2a28751c4c4e,Compañía Plana S.Com.,37.13548,-3.67029,ES,Malaga,True
dfc0d339-e45f-4958-adfe-0c5e2814a708,Talleres Boix y asociados S.L.,37.49073,-2.77259,ES,Barcelona,True
3df396b7-418a-42bd-8d00-48d61c6bcf79,Promociones Cal & Asociados S.A.,40.70995,0.57856,ES,Seville,True
08caf880-6b6f-437b-9d6e-9367d6890a21,Ruano y Carreras S.Com.,40.42386,-3.53261,ES,Zaragoza,True
787a6132-aff7-4329-a090-d92be5296c7b,Banco TQZM S.C.P,43.48961,-8.2194,ES,Seville,True
e893fe35-3a15-4588-96fc-83eff6b62dae,Promociones Cal & Asociados S.A.,41.41204,2.18247,ES,Barcelona,True
1773e365-dba1-4baa-8500-1a9716419b17,Banco TQZM S.C.P,41.63976,2.35739,ES,Zaragoza,True
7aa993e8-86a8-49fc-8095-07c5fd0b95bf,Suministros Guzman y asociados S.Com.,40.42386,-3.53261,ES,Bilbao,True
6d501653-d0c4-4014-8c19-d0e8959f284a,Inmobiliaria Campos S.Com.,42.06166,-1.60452,ES,Malaga,True
89a45aab-cd52-456f-a294-0542e832a7a7,Catalina Montalbán Nebot S.A.,40.42386,-3.53261,ES,Las Palmas,True
c5ea73c5-61cf-48fb-88a3-2eb33c55e581,Hnos Batlle S.L.U.,40.70995,0.57856,ES,Valencia,True
e9363e8f-0962-4ef1-970f-73e8a85a2fa0,Suministros Guzman y asociados S.Com.,38.68712,-4.10734,ES,Madrid,True
733e3029-a0e8-43f3-ab46-c4adf32b0394,Suministros Guzman y asociados S.Com.,40.70995,0.57856,ES,Las Palmas,True
7819ed95-68f2-4548-8ce8-4015a752c56d,Comercializadora Españolas S.L.U.,40.42386,-3.53261,ES,Las Palmas,True
9f73c49a-421c-440e-8ec6-d894de9b271d,Ruano y Carreras S.Com.,41.41204,2.18247,ES,Seville,True
339b6fc4-443a-4a96-a53a-cb8a9c187f8b,Compañía Plana S.Com.,40.42386,-3.53261,ES,Zaragoza,True
c0cce1ea-5f1c-4ae3-8486-3bdf87746266,Suministros Guzman y asociados S.Com.,41.15612,1.10687,ES,Valencia,True
089cdf44-3848-4508-986e-b771083bedc9,Comercializadora Españolas S.L.U.,41.63976,2.35739,ES,Madrid,True
04e44bb6-c0b6-4b1a-965e-c924aef50595,Inmobiliaria Campos S.Com.,27.76056,-15.58602,ES,Madrid,True
08a163a5-ac6e-4649-a612-2a0c5c5c5300,Catalina Montalbán Nebot S.A.,41.63976,2.35739,ES,Malaga,False
c19148c3-0f62-4d8c-90cc-51f40af53c27,Catalina Montalbán Nebot S.A.,43.32686,-2.98884,ES,Palma,True
dfb7892a-b63b-4d4b-acb6-27f9a448b929,Ruano y Carreras S.Com.,40.70995,0.57856,ES,Malaga,True
aa03d9ca-7e8e-4cb8-a6ef-21ba16bea1be,Talleres Boix y asociados S.L.,42.64685,-5.55835,ES,Seville,True
74d8858a-f107-4841-96c7-e54759c1136c,Talleres Boix y asociados S.L.,38.38479,-0.76773,ES,Madrid,True
9c3ad9bc-9b61-4b5d-bf09-317321fe117d,Hnos Batlle S.L.U.,38.96667,-0.18333,ES,Palma,True
e549bead-5b90-4f07-8f26-64d471dd344e,Hnos Batlle S.L.U.,38.38479,-0.76773,ES,Malaga,True
8f6a57ef-0b59-42cf-a0eb-5c0f5996445c,Inmobiliaria Campos S.Com.,27.76056,-15.58602,ES,Palma,True
2cb0befa-c7cd-43d2-ad59-aa80e552dc4b,Talleres Boix y asociados S.L.,37.49073,-2.77259,ES,Las Palmas,True
209cb238-2138-499e-bcb5-4420f73995db,Ruano y Carreras S.Com.,38.96667,-0.18333,ES,Palma,True
897df4bb-1906-4077-90dc-00ff04417e2c,Hnos Batlle S.L.U.,38.38479,-0.76773,ES,Seville,True
e077a7a7-f942-4c55-ad35-6c8ac1a32f39,Ruano y Carreras S.Com.,41.41204,2.18247,ES,Barcelona,True
60e208c9-a3ff-4e19-8a0e-c738e912414e,Banco TQZM S.C.P,38.10558,-1.86343,ES,Madrid,True
06b87bdd-717a-4344-9d5a-b22f7679ef07,Promociones Cal & Asociados S.A.,41.15612,1.10687,ES,Valencia,True
098af708-90ba-4f43-b654-86ff1c80ac07,Talleres Boix y asociados S.L.,40.42386,-3.53261,ES,Palma,True
e3f16476-1d57-49dd-a717-052fd8384e76,Talleres Boix y asociados S.L.,38.47917,-1.325,ES,Bilbao,True
b26099bd-21ad-4b4f-9488-cabd6dec7848,Compañía Plana S.Com.,40.70995,0.57856,ES,Bilbao,True
57bddbb5-f2d6-4032-8b20-46b8bed97597,Promociones Cal & Asociados S.A.,40.70995,0.57856,ES,Zaragoza,False
182844a8-993b-41c4-bdac-73d18e4e55fd,Inmobiliaria Campos S.Com.,37.49073,-2.77259,ES,Barcelona,True
3cb5e0d6-9a82-4e27-84f6-c92ac267a928,Promociones Cal & Asociados S.A.,40.70995,0.57856,ES,Bilbao,True
c529f757-33b3-42b1-b81b-4a79b0b065f9,Catalina Montalbán Nebot S.A.,41.15612,1.10687,ES,Bilbao,True
19a829c2-92ea-4e19-a348-cffe10d554fb,Inmobiliaria Campos S.Com.,39.96348,-4.83076,ES,Murcia,True
01a77b70-199f-44a9-ae3a-2596e22f5793,Hnos Batlle S.L.U.,38.68712,-4.10734,ES,Las Palmas,True
00ea30dd-12a9-473e-8942-b1c9980cb12a,Catalina Montalbán Nebot S.A.,40.42386,-3.53261,ES,Zaragoza,True
92f45a62-a755-4435-a7fa-b31fdfd3f350,Comercializadora Españolas S.L.U.,41.91738,3.1631,ES,Barcelona,True
0a99c9d4-abf3-486a-b080-50eb2be2db95,Hnos Batlle S.L.U.,37.35813,-6.03731,ES,Bilbao,True
29b8c0a9-6bf8-4fbe-be27-ce40672a2cdf,Banco TQZM S.C.P,37.49073,-2.77259,ES,Bilbao,True
83719346-2092-40af-9f74-3b145319b875,Talleres Boix y asociados S.L.,38.68712,-4.10734,ES,Malaga,True
a1bf36c5-584d-48bb-bd68-302536863de8,Talleres Boix y asociados S.L.,37.49073,-2.77259,ES,Murcia,True
f9783bd0-0798-4721-b404-15adfb4c7c66,Banco TQZM S.C.P,41.15612,1.10687,ES,Malaga,True
38c9032b-1cde-4fe6-8684-b351547ab5f4,Comercializadora Españolas S.L.U.,37.13548,-3.67029,ES,Zaragoza,True
897ce4da-8625-477b-9312-a8bcfd80a0e8,Hnos Batlle S.L.U.,43.31667,-2.68333,ES,Madrid,True
81ff1452-722d-40ff-a96a-13bb60b20d93,Promociones Cal & Asociados S.A.,38.10558,-1.86343,ES,Malaga,True
8a05eb0d-9865-4c04-a69a-e9d771938d42,Inmobiliaria Campos S.Com.,38.47917,-1.325,ES,Bilbao,True
197563d0-83a2-428d-9993-f359c74a90f8,Compañía Plana S.Com.,41.41204,2.18247,ES,Murcia,True
d9df66ec-e808-41c3-a745-320673a4ae6c,Promociones Cal & Asociados S.A.,38.10558,-1.86343,ES,Madrid,True
9d348e5c-7f56-475a-8d69-46a969161320,Promociones Cal & Asociados S.A.,37.49073,-2.77259,ES,Murcia,True
8308daaa-7540-4b1b-8da1-3560218c1574,Catalina Montalbán Nebot S.A.,41.41204,2.18247,ES,Barcelona,True
3e5f64c3-5d8c-481c-9b07-d15758b97b10,Ruano y Carreras S.Com.,37.13548,-3.67029,ES,Valencia,True
70f541ab-0fdd-4b3c-857d-28f32e84d4dc,Compañía Plana S.Com.,38.38479,-0.76773,ES,Madrid,True
55a75172-db6c-4c95-9a40-25c7c0498270,Ruano y Carreras S.Com.,41.41204,2.18247,ES,Bilbao,True
4ce24f79-a2d1-4e88-9fd4-cad39eadee80,Promociones Cal & Asociados S.A.,39.96348,-4.83076,ES,Palma,True
a3fe09e2-2854-4c67-b6f3-d4c712ea6c3b,Talleres Boix y asociados S.L.,42.06166,-1.60452,ES,Zaragoza,True
56b58f73-2df5-4693-9743-0e0d0d12da65,Hnos Batlle S.L.U.,38.38479,-0.76773,ES,Murcia,True
77e218d8-b183-4a45-a300-4c184386e08a,Suministros Guzman y asociados S.Com.,39.96348,-4.83076,ES,Malaga,True
ee177435-7517-4917-b774-f10665433027,Compañía Plana S.Com.,43.31667,-2.68333,ES,Las Palmas,True
e4e51770-12c9-4cb2-ba54-15f0ff5d51d6,Suministros Guzman y asociados S.Com.,38.96667,-0.18333,ES,Seville,True
7d5273cf-dbf8-407a-af59-8c2c9f08f945,Compañía Plana S.Com.,40.70995,0.57856,ES,Valencia,True
65257fbb-0cee-4ea9-8ddb-eba461497c99,Compañía Plana S.Com.,41.15612,1.10687,ES,Seville,True
157bb564-8d5b-4586-bef9-b3236ff0ceb5,Catalina Montalbán Nebot S.A.,43.48961,-8.2194,ES,Valencia,True
044848e4-42be-4a12-ba33-bf94776137cf,Hnos Batlle S.L.U.,41.41204,2.18247,ES,Zaragoza,True
ec29e1b2-b36e-466b-9606-fc4b12c7b277,Catalina Montalbán Nebot S.A.,38.10558,-1.86343,ES,Seville,True
f332223f-395c-45c2-b742-8a3fa80437d2,Cicala-Scamarcio s.r.l.,41.55947,14.66737,IT,Catania,True
6aa5f746-a96d-4cc7-9745-09fe394398e3,"Jovinelli, Franceschi e Pelli SPA",45.39402,9.29109,IT,Catania,True
67a763cc-7ce2-4402-858b-6345f9cebb07,Balbo-Bellucci Group,44.59445,11.04979,IT,Milan,True
49ddf7f8-13a6-49b3-88bd-0d504991bce5,Modigliani Group,44.59445,11.04979,IT,Catania,True
0e41acd5-0a43-4344-8afc-3d986f0c436c,Soranzo e figli,41.72063,12.6723,IT,Turin,True
9d9830c0-4155-45ad-b26b-5fe757e401a2,Baresi-Conte s.r.l.,43.1122,12.38878,IT,Bari,True
ec9f4fc9-6520-44e6-9010-7662f5bbd487,Baresi-Conte s.r.l.,41.24264,16.50104,IT,Milan,True
ae769839-80f6-4d7b-9f16-f314ce3609ec,Modigliani Group,44.31771,9.32241,IT,Milan,True
92b11c5b-28c2-4a71-ad3e-5f80a893598b,Balbo-Bellucci Group,41.55947,14.66737,IT,Bari,True
f396f845-d830-46aa-a59b-4420233ff66e,Toninelli Group,40.72586,8.55552,IT,Turin,True
48ecf51b-f30b-4d06-9d71-7f181b7cfa98,Modigliani Group,44.89784,8.86374,IT,Genoa,True
c0546317-bb5f-475b-8764-9644bc03c673,"Tozzo, Morucci e Manacorda SPA",45.50369,11.412,IT,Naples,True
20ee8580-197b-40e4-a5d2-c0661b21d5cd,Toninelli Group,40.87329,14.43865,IT,Rome,True
600ffaa1-9c4f-49e9-ac44-4b19a37b237f,"Jovinelli, Franceschi e Pelli SPA",45.9836,12.70038,IT,Florence,True
29f99a9f-6d9e-4288-b4d3-60b7de9e6f65,Simeoni-Luzi Group,38.07789,13.44275,IT,Turin,True
65381097-d753-4cd2-81ed-c6105b33de1b,"Tozzo, Morucci e Manacorda SPA",40.87329,14.43865,IT,Genoa,True
fcffb9e2-7317-4bf6-8f39-e79edcb51945,"Tozzo, Morucci e Manacorda SPA",40.87329,14.43865,IT,Palermo,True
bad78fda-2cc6-405d-9a54-8fcfe562722d,Simeoni-Luzi Group,42.67164,14.01481,IT,Genoa,True
1375bcf9-e4f5-4a14-848d-5152efb14c74,"Tozzo, Morucci e Manacorda SPA",40.87329,14.43865,IT,Bologna,True
998a6050-361b-41ab-8917-6c5c61758038,Toninelli Group,38.07789,13.44275,IT,Milan,True
a1a91156-8b63-452e-8c3e-3d64c355acc9,Toninelli Group,41.72063,12.6723,IT,Naples,True
e5149713-1cec-4019-adef-de3005823840,Soranzo e figli,42.22718,14.39024,IT,Genoa,True
d05783f2-8b7e-4e7c-a5a2-0d0b67100dde,"Tozzo, Morucci e Manacorda SPA",37.31065,13.57661,IT,Florence,True
2389e9c6-45f1-4b37-8741-bedd7b2fd762,Cicala-Scamarcio s.r.l.,42.67164,14.01481,IT,Palermo,False
706518f6-5db3-4da1-b2a6-7c68d77f6aff,Simeoni-Luzi Group,44.59445,11.04979,IT,Bari,True
b23e3ff0-f031-46a0-aa3a-732d573f2bb1,Balbo-Bellucci Group,40.72586,8.55552,IT,Naples,True
45819bad-8bfb-42ed-baa3-85cd8da576fb,"Jovinelli, Franceschi e Pelli SPA",44.31771,9.32241,IT,Palermo,True
a4d4a6ba-13dd-4e2f-8c7d-05452545ef5a,Soranzo e figli,41.55947,14.66737,IT,Florence,True
fa42d91e-ccae-41ab-a7bc-701cac4e8604,Gradenigo-Pedersoli s.r.l.,41.55947,14.66737,IT,Turin,True
6ac38e0e-fab0-49dd-90df-1cdafc3c5887,"Jovinelli, Franceschi e Pelli SPA",40.53123,17.58522,IT,Genoa,True
5b28e1a6-f166-4778-b26b-23dc14ccab84,Modigliani Group,37.49223,15.07041,IT,Florence,True
96f7942c-9867-4089-9f25-c40cf131c601,Soranzo e figli,45.53069,9.40531,IT,Bari,True
1dc7db35-6424-4758-8d36-75db58a46c16,Modigliani Group,44.31771,9.32241,IT,Bari,True
c4d59876-c674-4126-92b3-113d06cfb44c,Soranzo e figli,40.87363,14.34085,IT,Milan,True
924d775c-fe84-4f94-9fb3-a1b8c3438b07,Toninelli Group,38.07789,13.44275,IT,Florence,True
2fa47e65-57c4-45a9-a0f1-08569377c12d,Gradenigo-Pedersoli s.r.l.,45.9836,12.70038,IT,Bari,True
c6f6bc7a-8e57-4ff9-bf07-ce47f1b47088,"Jovinelli, Franceschi e Pelli SPA",38.07789,13.44275,IT,Naples,True
7e8450c1-8ece-4b5b-953e-f0f198d29701,Gradenigo-Pedersoli s.r.l.,41.24264,16.50104,IT,Naples,True
035bac81-5bdc-4a60-a658-86a7bb46125d,Soranzo e figli,45.53069,9.40531,IT,Bologna,True
17afcecf-6659-44ae-9774-a943527ac012,Gradenigo-Pedersoli s.r.l.,45.44694,8.62118,IT,Bologna,True
43036432-44ba-444d-b8f6-4cabdd736a34,Soranzo e figli,40.53123,17.58522,IT,Catania,True
8f3885b1-0415-4b3c-be94-2abc7ec24d86,Balbo-Bellucci Group,37.51803,15.00913,IT,Palermo,True
8777a890-9f37-4249-b704-fcb7a790b6ba,Balbo-Bellucci Group,40.72586,8.55552,IT,Genoa,True
cbcbae08-7cc5-48ab-a1f5-f256769a2a3a,Baresi-Conte s.r.l.,45.50369,11.412,IT,Genoa,True
0d9ba445-20f8-47bc-a536-40a73f6d2efe,Soranzo e figli,42.22718,14.39024,IT,Palermo,True
27796f52-0054-4317-91b1-926e39b563d9,Balbo-Bellucci Group,38.07789,13.44275,IT,Rome,True
d04a05b6-d111-4823-b544-1c2adf82991f,Baresi-Conte s.r.l.,40.72586,8.55552,IT,Bologna,True
9268de71-c321-4b6a-80fb-3081a282155d,Simeoni-Luzi Group,40.55851,17.80774,IT,Catania,True
8e4d6f9c-dac9-462d-a7e5-aad422728b0b,Simeoni-Luzi Group,37.51803,15.00913,IT,Naples,True
89956c85-e268-4c65-985e-b965319813e7,Gradenigo-Pedersoli s.r.l.,45.44694,8.62118,IT,Catania,True
d32f1d16-e367-48e8-8f82-0b289c7beec4,Cicala-Scamarcio s.r.l.,41.24264,16.50104,IT,Bologna,True
144b8073-33fc-429c-a81f-83d2f0a388d7,"Jovinelli, Franceschi e Pelli SPA",44.59445,11.04979,IT,Turin,True
4b1ff1a1-564d-4bf5-a51d-eb45ddff383b,Simeoni-Luzi Group,43.78956,7.60872,IT,Palermo,True
6e111cf1-9e30-413c-b9bb-cdb6df914180,"Jovinelli, Franceschi e Pelli SPA",45.53069,9.40531,IT,Bologna,True
22065093-7362-493c-8209-1f6944bee71b,Toninelli Group,42.67164,14.01481,IT,Catania,True
8cb505f4-ff0a-4be1-90a3-d9a7597e7723,Cicala-Scamarcio s.r.l.,43.1122,12.38878,IT,Turin,True
22e2e271-1250-480d-a400-80b3e4e6888f,Modigliani Group,45.39402,9.29109,IT,Bologna,True
765b62be-be8a-4680-a317-72efd9c36da8,Simeoni-Luzi Group,44.59445,11.04979,IT,Rome,True
b0dea496-f095-4776-a365-b49d11fce2c6,Balbo-Bellucci Group,40.53123,17.58522,IT,Florence,True
a8f15b4d-d136-476b-b679-66974233ab7b,Balbo-Bellucci Group,37.49223,15.07041,IT,Turin,True
51fdec75-54d7-4227-a259-acfb7d2f0050,Balbo-Bellucci Group,45.9836,12.70038,IT,Catania,True
3081c50c-7986-41d2-aac6-e6ec9504eacb,"Jovinelli, Franceschi e Pelli SPA",45.44694,8.62118,IT,Rome,True
b47e3fb7-549d-49d3-9614-90212db6f665,Baresi-Conte s.r.l.,44.89784,8.86374,IT,Rome,True
cc2f931a-c48d-4e11-8c70-a7582b79bf2c,Cicala-Scamarcio s.r.l.,40.87363,14.34085,IT,Naples,True
65b68364-09b3-4154-a571-a9e749da0925,Baresi-Conte s.r.l.,45.9836,12.70038,IT,Naples,True
9cec57c2-9044-407b-ae7a-c9b07cc01956,Cicala-Scamarcio s.r.l.,44.31771,9.32241,IT,Rome,True
7be69908-461b-4578-b42f-edcdebeb3720,Gradenigo-Pedersoli s.r.l.,43.1122,12.38878,IT,Florence,True
f9f13fed-7ebb-4830-868d-7ac10a3e48c5,Modigliani Group,44.89784,8.86374,IT,Palermo,True
2fbffe09-9d95-4c69-95c9-69681261db82,Modigliani Group,45.53069,9.40531,IT,Rome,True
11a64f8e-f3f9-4d38-aa79-1b95e433e419,Gradenigo-Pedersoli s.r.l.,37.51803,15.00913,IT,Milan,True
15e77f0a-90ef-4dbc-9a76-0ab8484a413c,Simeoni-Luzi Group,44.89784,8.86374,IT,Florence,True
a5ed2a6e-bf14-432b-8597-1bcb59715655,Cicala-Scamarcio s.r.l.,41.24264,16.50104,IT,Florence,True
01dda3d3-8c00-46a2-80df-800e3a7379ef,"Tozzo, Morucci e Manacorda SPA",44.59445,11.04979,IT,Milan,True
2457322d-5eb1-4cec-a090-f036b909b329,Toninelli Group,40.55851,17.80774,IT,Bologna,True
e71f55e9-44d4-4287-ac95-b07b40133f1d,Soranzo e figli,45.78071,12.84052,IT,Rome,True
2230fdc5-35fb-4e3a-9955-cce18b99f0ae,Modigliani Group,41.55947,14.66737,IT,Turin,True
50c441bb-9c21-441f-afcb-11d5c90d28be,Gradenigo-Pedersoli s.r.l.,42.22718,14.39024,IT,Rome,True
98e1e63b-f090-48c8-a134-f2e9333377b6,Soranzo e figli,45.44694,8.62118,IT,Naples,True
aa8ae612-3b8b-4640-8bce-20cf378ca5fe,"Tozzo, Morucci e Manacorda SPA",45.9836,12.70038,IT,Rome,True
b5e64d19-ba3f-439a-b951-28448e6561d2,Cicala-Scamarcio s.r.l.,41.55947,14.66737,IT,Milan,True
4f842d62-cb16-4ae2-acbd-c1ed727801cb,"Tozzo, Morucci e Manacorda SPA",37.31065,13.57661,IT,Bari,True
cef1e224-1478-4fe6-b608-7a41617bfeb9,Simeoni-Luzi Group,40.92298,14.30935,IT,Bologna,True
7e77bf80-5088-48b3-9837-ad8f4de00c83,Cicala-Scamarcio s.r.l.,41.24264,16.50104,IT,Bari,True
23c07e1d-2691-43d0-9f3f-1e44dd202d6b,Balbo-Bellucci Group,40.87329,14.43865,IT,Bologna,False
5c5f278d-fd4d-42b5-8719-a519653f018a,Toninelli Group,45.78071,12.84052,IT,Palermo,True
c505610f-37c1-4614-9bea-a1cbd71b0974,Toninelli Group,44.31771,9.32241,IT,Bari,False
298cad6c-aaac-4978-827e-e6099db07c51,Baresi-Conte s.r.l.,43.62558,13.39954,IT,Florence,True
1d88f767-ab1b-418f-8466-5e9753844bec,"Jovinelli, Franceschi e Pelli SPA",38.07789,13.44275,IT,Milan,True
64ab7084-b5c3-4871-bddd-d87ebba05f7a,Simeoni-Luzi Group,45.50369,11.412,IT,Milan,True
84db6941-cf61-490a-95cf-c7015088aeba,Gradenigo-Pedersoli s.r.l.,45.50369,11.412,IT,Palermo,True
4b20679c-1caf-4d69-b265-08e41876a9ed,Gradenigo-Pedersoli s.r.l.,37.51803,15.00913,IT,Genoa,True
05eaf9fd-fef7-4627-8e89-28ff5ac32d86,Toninelli Group,40.87329,14.43865,IT,Genoa,True
5ee8b489-830d-4627-ab68-2e60611c2694,"Tozzo, Morucci e Manacorda SPA",37.31065,13.57661,IT,Catania,True
669e7bce-3f9a-402b-a334-b7f306dd8d0f,Baresi-Conte s.r.l.,36.92574,14.72443,IT,Palermo,True
85fc18f0-783c-4d8e-b99b-395362886f66,Modigliani Group,41.24264,16.50104,IT,Naples,True
a0a293ff-88cc-47b2-a98b-e6b16c78ebeb,Cicala-Scamarcio s.r.l.,43.78956,7.60872,IT,Genoa,True
3cb64d23-c05b-4c9a-a242-83bc16a4e7ab,"Tozzo, Morucci e Manacorda SPA",45.39402,9.29109,IT,Turin,True
b1f50457-6a6f-419a-acfc-b3f8c2e23010,"Jovinelli, Franceschi e Pelli SPA",45.9836,12.70038,IT,Bari,True
d9312d8f-9d60-4c2e-9bd3-de77bba95ba4,Baresi-Conte s.r.l.,43.62558,13.39954,IT,Catania,True
0632ce5f-96a0-498f-b009-cb82c8532af9,Baresi-Conte s.r.l.,36.92574,14.72443,IT,Turin,True
723c85fe-aede-4e5c-a866-244fa97e5d5f,Mota S.A.,37.08819,-8.2503,PT,Porto,True
64ec07e5-ed76-459b-9bc2-8ba9128a75b7,Neves,41.1053,-7.32097,PT,Coimbra,True
93fa1515-d95d-46aa-ac16-090a73f15782,Figueiredo,41.20485,-8.33147,PT,Queluz,True
89e1184e-434b-45f1-8185-445da8bd41cd,Leal S/A,38.72706,-9.24671,PT,Porto,True
90e1c92b-7f01-44ad-bdc0-76fb72d5b087,Alves Lda.,41.20485,-8.33147,PT,Queluz,True
32c077ec-9d69-4b8f-92c7-7604ce6d36dc,Sá,38.72706,-9.24671,PT,Coimbra,False
e40753da-0a12-478e-b1c4-f1acbab2aab4,Neves,41.1053,-7.32097,PT,Queluz,True
55d9b34e-b5d6-4d8d-884b-4a277cf056fd,Figueiredo,37.08819,-8.2503,PT,Braga,True
39ca4d37-50af-455d-80d7-8456d8b17a02,Neves,41.1053,-7.32097,PT,Amadora,True
02fe1bce-4cc4-438e-b2f6-b55991289019,Neves,37.74615,-25.66689,PT,Funchal,True
40663638-8d67-4f5a-b425-fac158327e53,Leal S/A,38.72706,-9.24671,PT,Funchal,True
c03a463d-293e-4507-b1c2-a5d874f9bd8f,Figueiredo,38.72706,-9.24671,PT,Porto,True
d24d746f-502f-48f0-8df4-4e0e625a4072,Santos Lda.,38.72706,-9.24671,PT,Lisboa,True
b1f4853b-fddb-4d70-9077-392561516d21,Mota S.A.,37.74615,-25.66689,PT,Amadora,False
18bb1b7f-29ec-4721-bfe4-9840c741719e,Leal S/A,41.20485,-8.33147,PT,Setubal,True
32f71f06-5dac-49de-80b5-4b3c328e5ac4,Sá,37.74615,-25.66689,PT,Amadora,True
27903eba-ecbb-4b2e-8318-5113b3a261fc,Sá,38.72706,-9.24671,PT,Funchal,True
7037efd4-87ef-4808-9e8c-7bbc77489743,Marques Lda.,37.08819,-8.2503,PT,Amadora,True
ef2b33b7-03bc-4bf6-8d78-801b8686c0c9,Figueiredo S.A.,37.74615,-25.66689,PT,Almada,True
76cbf519-2d7b-427a-ab33-ac359a6d0dca,Santos Lda.,38.72706,-9.24671,PT,Funchal,True
6b2b5180-6926-498a-a562-0ef876f476bf,Figueiredo S.A.,37.08819,-8.2503,PT,Lisboa,True
c7a1c070-a989-468f-be3b-7335f0f592be,Mota S.A.,41.1053,-7.32097,PT,Coimbra,True
ec5eb655-2a0f-46e2-9996-640379cafe81,Leal S/A,37.74615,-25.66689,PT,Queluz,True
47c6ff58-3a7d-471a-ae06-77b5822c44cf,Alves Lda.,41.1053,-7.32097,PT,Coimbra,True
846267e5-34d7-4fa3-bfc5-f2019dda3ea2,Leal S/A,38.72706,-9.24671,PT,Lisboa,True
d22dcf5b-db59-4ce4-9d22-61d557c39635,Santos Lda.,38.72706,-9.24671,PT,Queluz,True
1ceba289-acf3-4917-8368-b4b2877dd691,Figueiredo,41.20485,-8.33147,PT,Amadora,True
2411825f-a9e4-44f0-8d21-334c8dc4d791,Alves Lda.,37.74615,-25.66689,PT,Braga,True
c223560d-7de8-46c0-b03b-8b593fe05866,Figueiredo,41.1053,-7.32097,PT,Coimbra,True
5a9e214f-0570-4e88-9d04-2e28a47272c9,Santos Lda.,37.08819,-8.2503,PT,Amadora,True
8c4e03da-054f-4b81-a5d2-7dddfd1b5ff0,Figueiredo S.A.,37.08819,-8.2503,PT,Queluz,True
68dd3552-4bf3-439f-a2f0-fac2060dbcf9,Alves Lda.,41.20485,-8.33147,PT,Funchal,True
5901f5ee-6115-4ad9-b248-95cb63294d48,Leal S/A,38.72706,-9.24671,PT,Braga,True
dcd624ba-0f09-450f-8b8c-5b578af205cd,Santos Lda.,38.72706,-9.24671,PT,Vila Nova de Gaia,True
fb5eb90e-ca04-4507-b659-0952cbfd486a,Figueiredo S.A.,37.74615,-25.66689,PT,Amadora,True
09d90722-07ba-4a15-9352-76c67076a154,Neves,41.1053,-7.32097,PT,Porto,True
6a5886d0-6f88-48d4-ab81-5986c2465231,Mota S.A.,41.1053,-7.32097,PT,Funchal,True
c1a11bd3-2f8d-40a6-a08c-3d031fc37403,Neves,41.1053,-7.32097,PT,Setubal,True
2f3b4c37-04e5-466e-a5af-bea833f339a8,Figueiredo S.A.,41.20485,-8.33147,PT,Porto,True
c330571d-7efb-4667-a931-2634eff26855,Santos Lda.,41.1053,-7.32097,PT,Setubal,True
57ae6665-436c-46fe-80e1-5fcb116036a3,Mota S.A.,37.74615,-25.66689,PT,Almada,True
3f871d05-317e-4cb8-92bd-baaccec90c69,Marques Lda.,38.72706,-9.24671,PT,Queluz,True
35d544b6-7ebd-4f4b-b058-458de333ccff,Moreira,41.1053,-7.32097,PT,Porto,True
df577c20-9f06-4ecc-be18-d8f09b64d8d0,Moreira,37.74615,-25.66689,PT,Funchal,True
059cfca0-9f00-4441-9fce-101ddd1324a1,Marques Lda.,37.08819,-8.2503,PT,Almada,True
02478e09-b3c7-4e76-9921-701efa44ce8b,Moreira,41.1053,-7.32097,PT,Vila Nova de Gaia,False
ab5d81f7-69b1-47d5-aea0-238af8cfb175,Leal S/A,41.1053,-7.32097,PT,Coimbra,True
d5779bd7-792d-43f0-93b9-b492176be109,Figueiredo S.A.,41.1053,-7.32097,PT,Coimbra,True
d8f534dc-760c-4add-9c30-398de2b2c0d4,Moreira,41.1053,-7.32097,PT,Coimbra,True
8deeedca-c94d-4ab8-b46a-d5578b8454f6,Figueiredo S.A.,41.20485,-8.33147,PT,Braga,True
56c0d9be-3b61-4e9c-b3c4-ef3c7c9a21a3,Mota S.A.,38.72706,-9.24671,PT,Queluz,True
71339b55-a1ab-4368-91f9-4dbd856b9912,Neves,37.08819,-8.2503,PT,Almada,True
4a7cea79-e9cb-4b15-90da-e6b7c437f87e,Sá,37.08819,-8.2503,PT,Almada,True
1892630e-5570-4686-864a-ba76bf396fec,Alves Lda.,38.72706,-9.24671,PT,Setubal,True
b51bb2eb-b221-4890-a628-cfdc18493259,Mota S.A.,41.1053,-7.32097,PT,Lisboa,True
daa0a125-af2b-4155-b6de-a2d0bb12ca22,Leal S/A,37.74615,-25.66689,PT,Vila Nova de Gaia,True
0d8c66b3-1ad2-4f97-b439-89a35cf627c3,Figueiredo S.A.,37.08819,-8.2503,PT,Setubal,True
6f5fa031-1aaa-45a5-b85d-e5b2ac0857ca,Neves,37.74615,-25.66689,PT,Vila Nova de Gaia,True
30a4451e-8fbc-4963-bdf9-60a5b351fc17,Alves Lda.,38.72706,-9.24671,PT,Almada,True
22d79389-37d2-4a51-81f7-87e4471ff9b7,Leal S/A,37.08819,-8.2503,PT,Amadora,True
01739283-c16d-49c6-a2ff-9076e637f6ab,Marques Lda.,41.20485,-8.33147,PT,Lisboa,True
eebd4715-56cb-4fbb-bf9f-da7641789d2b,Marques Lda.,41.20485,-8.33147,PT,Coimbra,True
9d3b8626-3cf1-42de-859a-42e4029662a3,Figueiredo S.A.,38.72706,-9.24671,PT,Vila Nova de Gaia,True
0148b984-1aad-4ca2-ba82-6c89d5dbbe83,Figueiredo,37.08819,-8.2503,PT,Vila Nova de Gaia,True
bd2b413d-b579-4f94-bb27-a651d625461b,Mota S.A.,41.20485,-8.33147,PT,Setubal,True
a6620761-7d1e-431b-9e79-9272755ea35e,Sá,38.72706,-9.24671,PT,Setubal,True
f3dddcd1-3527-48e1-ad57-ff41775d3911,Sá,37.74615,-25.66689,PT,Porto,True
f5dfc04d-f983-4409-8dcc-0fffcb0526ce,Moreira,41.20485,-8.33147,PT,Braga,True
564580e5-f383-40ce-a45f-a1824cddba96,Marques Lda.,38.72706,-9.24671,PT,Setubal,True
02f46929-d51d-4923-bb71-bc93cf5983e8,Figueiredo,37.08819,-8.2503,PT,Setubal,True
df98534a-5197-485a-9a70-24e4bfe4c4c0,Santos Lda.,41.1053,-7.32097,PT,Coimbra,True
65491548-ac96-4391-b186-4c38d57a7112,Sá,41.20485,-8.33147,PT,Queluz,True
1203c427-3e92-4f78-b364-d87cfd1dba7e,Figueiredo,41.20485,-8.33147,PT,Funchal,True
d72bb5de-880a-4c2b-996b-aaec315c7daf,Neves,37.08819,-8.2503,PT,Lisboa,True
d498f475-65a6-4fa2-97bd-45c89551007a,Moreira,37.74615,-25.66689,PT,Queluz,True
6ae0fae7-b132-4ba8-960a-19cd78750614,Sá,37.08819,-8.2503,PT,Lisboa,True
2728e311-7487-415d-982f-8154a6f698b1,Marques Lda.,38.72706,-9.24671,PT,Funchal,True
c6319182-e151-44fc-a087-15ba317d999a,Moreira,41.20485,-8.33147,PT,Almada,True
9f58bef8-b4d4-4bd7-bcec-dd4798a5b52a,Marques Lda.,37.08819,-8.2503,PT,Vila Nova de Gaia,True
0f018014-c1a3-44b8-b42a-c9c734920ccd,Neves,41.1053,-7.32097,PT,Braga,True
09154c67-8b0a-4295-a280-a04a34ed492f,Figueiredo,37.74615,-25.66689,PT,Lisboa,False
4aea8a7f-cf3f-4404-9cd4-d1f5d9b572c5,Santos Lda.,37.08819,-8.2503,PT,Almada,True
59bf32e4-d679-4f21-8678-1f652bc8f09d,Moreira,38.72706,-9.24671,PT,Lisboa,False
9d8b3580-6fc2-4844-808c-ae2d498dfcef,Figueiredo,37.08819,-8.2503,PT,Almada,False
5541c443-64f1-4020-bc84-5da148169771,Alves Lda.,41.20485,-8.33147,PT,Vila Nova de Gaia,True
e453385a-b49f-4c7d-9033-af075dff1d1e,Marques Lda.,37.74615,-25.66689,PT,Braga,True
57a8b93a-c43b-4450-bbc6-61bc59fae134,Sá,41.20485,-8.33147,PT,Vila Nova de Gaia,True
f11891e3-1426-4c01-86e8-6c20cb59d6dd,Santos Lda.,41.20485,-8.33147,PT,Braga,True
fe1c3873-e885-4a66-a7cf-bbf831112db8,Alves Lda.,37.08819,-8.2503,PT,Lisboa,False
4a9cbdfd-b18e-4ee5-a8ec-f173a1bd67be,Mota S.A.,41.1053,-7.32097,PT,Vila Nova de Gaia,True
37caf99f-5316-4a24-85c9-f7ac60f08fa2,Sá,41.20485,-8.33147,PT,Braga,True
bc007832-fc3a-4658-8755-4f36a1fe6947,Alves Lda.,38.72706,-9.24671,PT,Porto,True
b0927b5e-0669-43ed-9d32-bb81b58f337b,Moreira,37.08819,-8.2503,PT,Amadora,True
b344b52d-9197-42da-87da-3bfdb3449da1,Santos Lda.,41.20485,-8.33147,PT,Porto,True
0b4f7cc1-6f64-46c0-981c-a6c93209e733,Moreira,37.74615,-25.66689,PT,Setubal,True
e9d19f69-6ec8-4590-85e7-6cb279dd0732,Alves Lda.,41.1053,-7.32097,PT,Amadora,False
1643c6b9-9aca-42d3-98d9-38d78ca7339a,Marques Lda.,37.74615,-25.66689,PT,Porto,True
8bf1d241-29d8-424e-9440-8a696d28df3c,Figueiredo S.A.,38.72706,-9.24671,PT,Funchal,True
5d5448e1-7b18-4c8d-a1f3-ee1010428728,Leal S/A,41.1053,-7.32097,PT,Almada,True
fdc338ab-2271-46eb-bebb-5807f15f7d50,Mota S.A.,41.1053,-7.32097,PT,Braga,True
a9eee244-0ffd-4612-8687-1aa4a569ba59,株式会社佐藤印刷,44.35056,142.45778,JP,Kobe,True
3bd56119-8901-4dc1-92fd-3b761576f932,藤田鉱業有限会社,36,139.55722,JP,Kawasaki,True
61b601dc-00d3-4f7e-981c-2b739fd71dde,斎藤建設合同会社,43.82634,144.09638,JP,Yokohama,True
5e082213-3433-4399-b55b-e5be73a74c1d,斎藤建設合同会社,36.65,138.31667,JP,Kyoto,True
f1c35ec1-af85-47e5-a7bb-f493fa7a0634,合同会社山田運輸,39.46667,141.95,JP,Osaka,True
87e012cb-121d-4916-a6da-841ec6f13404,山下通信合同会社,39.46667,141.95,JP,Saitama,False
d70eccf9-af49-4184-a14a-ace1a311e4ed,有限会社松本通信,36.33011,138.89585,JP,Saitama,True
51177aaf-2055-4eeb-9442-ffec47d38eda,株式会社佐藤印刷,34.81667,137.4,JP,Kyoto,True
7fe674b8-e145-477b-96ce-9002dc07af43,中島電気合同会社,39.46667,141.95,JP,Osaka,True
40db260e-6bfe-49aa-8878-0968531ca6e3,山下通信合同会社,36.53333,136.61667,JP,Kobe,True
acfca783-a7d0-411e-8070-30342db39af4,合同会社山田運輸,34.61667,135.6,JP,Yokohama,True
e6bce812-216d-40da-a9d3-19f47e3db397,斎藤建設合同会社,34.4833,136.84186,JP,Kawasaki,True
722e20d0-db4b-447b-a00d-a090e7074bf6,有限会社鈴木水産,34.25,135.31667,JP,Nagoya,True
8075f680-dc33-4548-8ef2-c3c7c2f7d4cc,株式会社佐藤印刷,34.9,137.5,JP,Kawasaki,True
9b10a375-b7ba-4a18-90ae-264d7fcc1b74,中島電気合同会社,43.82634,144.09638,JP,Sapporo,True
1a5e05aa-06d8-4c79-84ce-a3ac725863c0,合同会社山田運輸,41.77583,140.73667,JP,Kawasaki,True
49ffda1c-075b-466f-8efa-5e5b27e25d17,山下通信合同会社,35.82756,137.95378,JP,Yokohama,True
928e421b-559f-4f67-b3f7-9b300eac2d45,中島電気合同会社,35,136.51667,JP,Fukuoka,True
377ec9a0-763a-4060-ae92-aad7bb1b3dcc,藤田鉱業有限会社,34.25,135.31667,JP,Tokyo,True
f4771ac8-cc07-4368-8846-69a32514fcac,合同会社山田運輸,39.46667,141.95,JP,Nagoya,True
4c9baf4e-b429-4998-a7e0-8e6d13e94f07,有限会社鈴木水産,36.33011,138.89585,JP,Kyoto,True
12c29d9d-19f6-497f-9b84-03d73d74121b,合同会社石井保険,34.81667,137.4,JP,Kobe,True
d30ff0e9-8882-4628-a749-ef38bd38ae08,中島電気合同会社,41.77583,140.73667,JP,Kyoto,True
e64b8690-579e-4400-8b18-ec686adcdedb,有限会社鈴木水産,34.4833,136.84186,JP,Kawasaki,True
8f6301b3-3f56-44d5-aed5-b8130f768ddc,斎藤建設合同会社,33.3213,130.94098,JP,Sapporo,True
363208ec-8ef2-4fb2-a826-f744ea3b625e,株式会社佐藤印刷,34.9,137.5,JP,Tokyo,True
d25c5fea-305e-4133-a399-818134467d45,合同会社石井保険,44.35056,142.45778,JP,Osaka,True
6e8f9896-7c7b-4f78-8b56-c91d2b40947f,合同会社山田運輸,35.815,139.6853,JP,Kyoto,True
0be331b4-ccb6-47e5-a251-4f382f5597d0,有限会社鈴木水産,35.82756,137.95378,JP,Saitama,True
3bcb8cc6-fbae-4fd0-9067-6c2caecd4ad6,合同会社石井保険,33.4425,129.96972,JP,Yokohama,True
0da5df63-07e8-4b30-8f14-c0b590d9e5e6,合同会社鈴木ガス,34.61667,135.6,JP,Kobe,True
7b4b43ac-4c37-4df3-bb6d-4dfbdf8742d5,合同会社鈴木ガス,36.75965,137.36215,JP,Nagoya,True
372688b1-f0e2-4622-b5f8-039868ab77ff,合同会社石井保険,35.82756,137.95378,JP,Kawasaki,True
2384ec6a-6b38-40d4-af69-2199aeb6e0a0,藤田鉱業有限会社,34.9,137.5,JP,Kyoto,True
53df1611-10fa-4e68-b776-65a4677ac512,合同会社鈴木ガス,35.8,137.23333,JP,Osaka,True
082ead41-f8ac-4a7c-9d44-427966df818a,斎藤建設合同会社,35.82756,137.95378,JP,Osaka,False
2a16716b-cc3e-4a13-aefb-02bdc23e09a3,有限会社鈴木水産,33.3213,130.94098,JP,Kobe,True
512303dd-9b61-4436-a387-6c83bbfcd534,株式会社佐藤印刷,43.82634,144.09638,JP,Yokohama,True
400acfbc-ab64-4752-8aea-5a30421d4b06,斎藤建設合同会社,34.75856,136.13108,JP,Fukuoka,True
992e80ac-63f1-4b08-b4a1-b2e464923693,合同会社山田運輸,33.4425,129.96972,JP,Kobe,True
be651834-7958-4079-85a8-e0e416455c30,山下通信合同会社,34.75856,136.13108,JP,Kyoto,True
e52073f7-ad92-43d0-a0b5-808a69c54f29,有限会社松本通信,43.82634,144.09638,JP,Sapporo,True
833b9942-2073-4e5c-90a5-c05a80c9edf2,株式会社佐藤印刷,34.25,135.31667,JP,Osaka,True
80724d17-7bda-4e2d-a734-f9773881ea63,有限会社鈴木水産,35.8,137.23333,JP,Sapporo,True
434b4862-abae-4a19-b057-9fddde2ed9d5,山下通信合同会社,36,139.55722,JP,Fukuoka,True
778fac83-4d21-480e-b2fc-d85898438ceb,藤田鉱業有限会社,37.56667,140.11667,JP,Fukuoka,True
b25e6b12-9b19-4636-81a4-ba0783cb6cc4,斎藤建設合同会社,34.61667,135.6,JP,Kobe,True
b981b1b8-6ce4-42d7-ab14-1920e69a0f96,山下通信合同会社,36,139.55722,JP,Kawasaki,True
4f6032d5-6d08-4129-901a-4a6bd595655b,合同会社山田運輸,36.33011,138.89585,JP,Tokyo,True
dcbe19f4-69c2-4137-9798-bc7e51506fcf,斎藤建設合同会社,35.82756,137.95378,JP,Nagoya,True
2ebf506d-58d1-42cf-8ab1-7593e315095d,合同会社鈴木ガス,36.65,138.31667,JP,Tokyo,True
efff533b-904e-4763-a0ad-aafb5d90b84a,合同会社鈴木ガス,44.35056,142.45778,JP,Kawasaki,True
ee6e037c-e353-4d4e-bec1-539da26559c4,藤田鉱業有限会社,37.56667,140.11667,JP,Osaka,True
c5ad1e3a-11f3-4bc0-b1e8-309228e4517b,有限会社鈴木水産,35.82756,137.95378,JP,Tokyo,True
78c8083c-229c-4072-982f-be0842736364,藤田鉱業有限会社,34.25,135.31667,JP,Saitama,True
32efe375-0b0c-4b17-a92b-0fd2cb60aa3d,中島電気合同会社,33.3213,130.94098,JP,Tokyo,True
e836218d-68eb-4d19-bf71-ced7704f6911,株式会社佐藤印刷,36.33011,138.89585,JP,Saitama,True
40d91466-2a70-4d05-9b3a-f0898f47ef71,合同会社鈴木ガス,35.30889,139.55028,JP,Saitama,True
afe3dca2-ef5f-4147-8b0d-2d35dcb8f569,合同会社石井保険,34.61667,135.6,JP,Nagoya,True
56a39fc5-fa09-47a8-93ae-29f080cb9258,合同会社鈴木ガス,36.33011,138.89585,JP,Yokohama,False
2215c34c-4381-4271-a5a0-2b0bffc1931d,藤田鉱業有限会社,37.56667,140.11667,JP,Sapporo,True
580c55b7-c8bc-4830-a416-562b87fa9dd0,株式会社佐藤印刷,33.4425,129.96972,JP,Nagoya,True
a45b919f-cc82-44f7-a0cc-dfa70f27a5cf,有限会社松本通信,36.33011,138.89585,JP,Osaka,True
834fc523-9c59-4479-b936-b8675877debd,有限会社松本通信,34.61667,135.6,JP,Kyoto,True
a87809fc-237b-46d6-a9c7-a9b4add10379,合同会社山田運輸,34.4833,136.84186,JP,Saitama,True
6dcaa8b9-f890-41d4-b7fd-920359b96364,斎藤建設合同会社,41.77583,140.73667,JP,Tokyo,False
a35cb01e-7f70-42b4-9710-a51960f545e6,有限会社松本通信,34.61667,135.6,JP,Nagoya,True
6a2c76a8-2eba-4582-b64a-37952294c910,山下通信合同会社,36.75965,137.36215,JP,Nagoya,True
f1a289a5-95b7-49ae-be33-00f99bf0824c,有限会社松本通信,39.46667,141.95,JP,Kobe,True
12998439-deb7-4ed5-8fd8-ec95fdb06d63,有限会社鈴木水産,36,139.55722,JP,Fukuoka,True
83d5e3c8-a3b6-4498-bda3-8f01099320ca,合同会社石井保険,35.48199,137.02166,JP,Tokyo,True
e281f135-5a18-4363-abe4-5a5c08faf990,中島電気合同会社,36,139.55722,JP,Kobe,True
d94823b5-e8db-4724-b82d-7bc48177c768,有限会社鈴木水産,35.815,139.6853,JP,Yokohama,True
7f5f198d-9570-4093-b47a-ca9e1efb6194,有限会社松本通信,36,139.55722,JP,Yokohama,True
f8a41982-6f84-4427-a967-d195a9728573,斎藤建設合同会社,36.75965,137.36215,JP,Saitama,True
b23cac67-50c1-4cda-811c-a03be68f57ec,中島電気合同会社,43.82634,144.09638,JP,Yokohama,True
e7d1a588-01af-47d2-8354-999d5e471ff3,合同会社石井保険,36.53333,136.61667,JP,Sapporo,True
2dd2afc2-7cd8-4adb-8871-c4f1ce9cf3e6,山下通信合同会社,35.8,137.23333,JP,Osaka,True
2f37a9a9-1e0f-488f-884b-4360e2962d20,合同会社鈴木ガス,36.33011,138.89585,JP,Fukuoka,True
f5195589-6b7e-41e1-ada7-62e372423429,合同会社鈴木ガス,34.75856,136.13108,JP,Sapporo,True
3689c648-8758-45a3-8c00-5e2c7e639e87,合同会社石井保険,41.77583,140.73667,JP,Kyoto,True
b76b0a64-4073-4b9f-8194-42fc23f1ad54,藤田鉱業有限会社,34.25,135.31667,JP,Nagoya,True
a7ac1bcf-a81c-4437-8973-df87002d4a3b,山下通信合同会社,35.30889,139.55028,JP,Tokyo,True
81ddf097-ee2a-419a-ada6-514909082a27,合同会社山田運輸,35,136.51667,JP,Fukuoka,True
40d3f49b-4727-40fe-966e-08e9c121b8a2,合同会社石井保険,34.61667,135.6,JP,Fukuoka,True
243220fb-2a8b-4f53-8b9e-618c8fc128a8,有限会社松本通信,35.815,139.6853,JP,Tokyo,True
0c2e95af-41d3-472d-8940-1fcbcba9b582,合同会社山田運輸,37.56667,140.11667,JP,Sapporo,True
34ec6707-f347-4b60-8af9-6805418e5ae5,中島電気合同会社,34.25,135.31667,JP,Saitama,True
dd46357c-4615-41e5-820f-577ae6e8b73f,有限会社鈴木水産,35.82756,137.95378,JP,Osaka,True
d57f4658-c53b-4978-a64f-29af90115b38,藤田鉱業有限会社,36.24624,139.07204,JP,Kobe,True
966402f8-0c30-4562-9fec-e2eb3a7cb7be,有限会社松本通信,35,136.51667,JP,Fukuoka,True
18548778-91a1-446d-8d46-6d732694b11c,有限会社松本通信,35,136.51667,JP,Kawasaki,True
01bc0933-e461-49f1-bb1d-6e8bbcddaa2c,株式会社佐藤印刷,36.75965,137.36215,JP,Fukuoka,True
2c1fea2f-883f-45b5-bfcb-da0cbfb56c7e,株式会社佐藤印刷,36.24624,139.07204,JP,Sapporo,True
bec3c0ec-ed02-4369-bc76-73984098ff65,中島電気合同会社,35.30889,139.55028,JP,Nagoya,True
d1d1cb37-47a6-49ff-aa87-ff86a8eb1dc5,合同会社石井保険,34.4833,136.84186,JP,Saitama,True
5747875d-a08f-43ca-8746-f877e5a76d9c,藤田鉱業有限会社,36,139.55722,JP,Yokohama,False
3c2f59c3-c280-4236-96b9-077b80841e6e,中島電気合同会社,35.30889,139.55028,JP,Kawasaki,True
7cce58fe-87b8-4f70-bb42-525f88efea91,合同会社鈴木ガス,35.48199,137.02166,JP,Kyoto,True
6aa92e5b-5027-453f-844b-fa94d5d4cf3d,山下通信合同会社,36.65,138.31667,JP,Sapporo,True
